NORAD_CAT_ID,OBJECT_NAME,OBJECT_TYPE,EPOCH,MEAN_MOTION,ECCENTRICITY,INCLINATION,RA_OF_ASC_NODE,ARG_OF_PERICENTER,MEAN_ANOMALY,BSTAR,MEAN_MOTION_DOT,MEAN_MOTION_DDOT,TLE_LINE0,TLE_LINE1,TLE_LINE2,SEMIMAJOR_AXIS,PERIOD,APOGEE,PERIGEE,DECAYED
51994.0,STARLINK-3647,PAYLOAD,2022-07-28 14:00:01,15.08846788,0.0001971,53.2152,185.3113,55.4769,35.5822,-0.002095,-0.00033482,0.0,0 STARLINK-3647,1 51994U 22025AQ  22209.58334491 -.00033482  00000-0 -20950-2 0  9991,2 51994  53.2152 185.3113 0001971  55.4769  35.5822 15.08846788  1308,6917.86,95.437,541.0880000000002,538.361,0.0
51994.0,STARLINK-3647,PAYLOAD,2022-07-28 22:00:00,15.08827792,0.0001906999999999,53.2155,183.8141,61.9088,40.7387,0.0013538,0.00021316,0.0,0 STARLINK-3647,1 51994U 22025AQ  22209.91667824  .00021316  00000-0  13538-2 0  9992,2 51994  53.2155 183.8141 0001907  61.9088  40.7387 15.08827792  1308,6917.918000000002,95.438,541.102,538.4630000000002,0.0
51994.0,STARLINK-3647,PAYLOAD,2022-07-29 06:00:00,15.08833192,0.0002055,53.2154,182.3196,56.7417,57.4983,-9.8624e-05,-1.857e-05,0.0,0 STARLINK-3647,1 51994U 22025AQ  22210.25001157 -.00001857  00000-0 -98624-4 0  9993,2 51994  53.2154 182.3196 0002055  56.7417  57.4983 15.08833192 23261,6917.901,95.438,541.188,538.345,0.0
51994.0,STARLINK-3647,PAYLOAD,2022-07-29 14:00:01,15.08852056,0.0001992,53.2152,180.8223,58.0063,67.8161,-0.0020716999999999,-0.0003312,0.0,0 STARLINK-3647,1 51994U 22025AQ  22210.58334491 -.00033120  00000-0 -20717-2 0  9993,2 51994  53.2152 180.8223 0001992  58.0063  67.8161 15.08852056  1308,6917.844,95.437,541.087,538.331,0.0
51994.0,STARLINK-3647,PAYLOAD,2022-07-29 22:00:00,15.08837598,0.0001966,53.2155,179.3252,63.9695,73.4459,0.00082376,0.00012846,0.0,0 STARLINK-3647,1 51994U 22025AQ  22210.91667824  .00012846  00000-0  82376-3 0  9999,2 51994  53.2155 179.3252 0001966  63.9695  73.4459 15.08837598  1300,6917.888000000001,95.438,541.113,538.393,0.0
51994.0,STARLINK-3647,PAYLOAD,2022-07-30 14:00:01,15.08856035,0.0002039,53.2152,176.3332,59.8536,100.7499,-0.0020357,-0.00032555,0.0,0 STARLINK-3647,1 51994U 22025AQ  22211.58334491 -.00032555  00000-0 -20357-2 0  9995,2 51994  53.2152 176.3332 0002039  59.8536 100.7499 15.08856035 23469,6917.831,95.437,541.107,538.286,0.0
51994.0,STARLINK-3647,PAYLOAD,2022-07-30 22:00:00,15.08847108,0.0002048,53.2155,174.8363,65.1359,107.0666,0.00048794,7.488e-05,0.0,0 STARLINK-3647,1 51994U 22025AQ  22211.91667824  .00007488  00000-0  48794-3 0  9992,2 51994  53.2155 174.8363 0002048  65.1359 107.0666 15.08847108  1308,6917.859,95.437,541.14,538.307,0.0
51994.0,STARLINK-3647,PAYLOAD,2022-07-31 06:00:02,15.08835393,0.0002190999999999,53.2155,173.3416,58.9612,124.9137,0.0010419,0.00016331,0.0,0 STARLINK-3647,1 51994U 22025AQ  22212.25002315  .00016331  00000-0  10419-2 0  9997,2 51994  53.2155 173.3416 0002191  58.9612 124.9137 15.08835393 23568,6917.894,95.438,541.275,538.244,0.0
51994.0,STARLINK-3647,PAYLOAD,2022-07-31 14:00:01,15.08862198,0.0002093,53.2154,171.84400000000005,60.6816,134.7251,-0.0019228,-0.00030779,0.0,0 STARLINK-3647,1 51994U 22025AQ  22212.58334491 -.00030779  00000-0 -19228-2 0  9997,2 51994  53.2154 171.8440 0002093  60.6816 134.7251 15.08862198  1301,6917.813,95.436,541.125,538.23,0.0
51994.0,STARLINK-3647,PAYLOAD,2022-07-31 22:00:00,15.08863384,0.000207,53.2157,170.3472,64.8111,142.2022,-0.0029048,-0.00046252,0.0,0 STARLINK-3647,1 51994U 22025AQ  22212.91667824 -.00046252  00000-0 -29048-2 0  9997,2 51994  53.2157 170.3472 0002070  64.8111 142.2022 15.08863384  1300,6917.809,95.436,541.106,538.242,0.0
51994.0,STARLINK-3647,PAYLOAD,2022-08-01 06:00:00,15.08810294,0.0002181,53.2158,168.8526,57.6412,160.9807,0.0016550999999999,0.0002613,0.0,0 STARLINK-3647,1 51994U 22025AQ  22213.25001157  .00026130  00000-0  16551-2 0  9992,2 51994  53.2158 168.8526 0002181  57.6412 160.9807 15.08810294 23719,6917.971,95.439,541.345,538.327,0.0
51994.0,STARLINK-3647,PAYLOAD,2022-08-01 14:00:01,15.08840489,0.0002076,53.2159,167.3549,60.0145,170.1779,-0.0015462,-0.00024813,0.0,0 STARLINK-3647,1 51994U 22025AQ  22213.58334491 -.00024813  00000-0 -15462-2 0  9996,2 51994  53.2159 167.3549 0002076  60.0145 170.1779 15.08840489  1304,6917.879,95.438,541.18,538.308,0.0
51994.0,STARLINK-3647,PAYLOAD,2022-08-01 22:00:00,15.08841803,0.0002118,53.2161,165.8583,64.467,177.3073,2.2713e-05,7.3e-07,0.0,0 STARLINK-3647,1 51994U 22025AQ  22213.91667824  .00000073  00000-0  22713-4 0  9991,2 51994  53.2161 165.8583 0002118  64.4670 177.3073 15.08841803  1303,6917.875,95.437,541.205,538.275,0.0
51994.0,STARLINK-3647,PAYLOAD,2022-08-02 06:00:02,15.08819416,0.0002281,53.2162,164.3635,58.4451,194.9918,0.0020805,0.0003296,0.0,0 STARLINK-3647,1 51994U 22025AQ  22214.25002315  .00032960  00000-0  20805-2 0  9995,2 51994  53.2162 164.3635 0002281  58.4451 194.9918 15.08819416 23860,6917.943,95.439,541.386,538.23,0.0
51994.0,STARLINK-3647,PAYLOAD,2022-08-02 14:00:01,15.08849337,0.000216,53.2164,162.8658,61.4465,203.5132,-0.0011794,-0.00019015,0.0,0 STARLINK-3647,1 51994U 22025AQ  22214.58334491 -.00019015  00000-0 -11794-2 0  9999,2 51994  53.2164 162.8658 0002160  61.4465 203.5132 15.08849337 23911,6917.852,95.437,541.211,538.2230000000002,0.0
51994.0,STARLINK-3647,PAYLOAD,2022-08-03 14:00:01,15.08832185,0.0002109,53.2165,158.3767,62.1043,237.645,-0.00064587,-0.00010551,0.0,0 STARLINK-3647,1 51994U 22025AQ  22215.58334491 -.00010551  00000-0 -64587-3 0  9995,2 51994  53.2165 158.3767 0002109  62.1043 237.6450 15.08832185 24067,6917.904,95.438,541.2280000000002,538.31,0.0
51994.0,STARLINK-3647,PAYLOAD,2022-08-03 22:00:01,15.08845494,0.0002121,53.2166,156.8802,65.4402,245.9483,-0.00066204,-0.00010811,0.0,0 STARLINK-3647,1 51994U 22025AQ  22215.91668981 -.00010811  00000-0 -66204-3 0  9993,2 51994  53.2166 156.8802 0002121  65.4402 245.9483 15.08845494  1307,6917.864000000001,95.437,541.196,538.261,0.0
51994.0,STARLINK-3647,PAYLOAD,2022-08-04 06:00:00,15.08817283,0.0002254999999999,53.2163,155.3854,60.0874,262.8406,0.0025388999999999,0.00040326,0.0,0 STARLINK-3647,1 51994U 22025AQ  22216.25001157  .00040326  00000-0  25389-2 0  9997,2 51994  53.2163 155.3854 0002255  60.0874 262.8406 15.08817283 24164,6917.95,95.439,541.375,538.255,0.0
51994.0,STARLINK-3647,PAYLOAD,2022-08-04 14:00:01,15.08840406,0.0002121,53.2162,153.8875,64.7725,269.7458,-3.5156e-05,-8.48e-06,0.0,0 STARLINK-3647,1 51994U 22025AQ  22216.58334491 -.00000848  00000-0 -35156-4 0  9995,2 51994  53.2162 153.8875 0002121  64.7725 269.7458 15.08840406  1304,6917.879,95.438,541.211,538.2769999999998,0.0
51994.0,STARLINK-3647,PAYLOAD,2022-08-04 22:00:00,15.08866552,0.0002104,53.2163,152.3913,67.1226,278.9858,-0.0017699999999999,-0.00028369,0.0,0 STARLINK-3647,1 51994U 22025AQ  22216.91667824 -.00028369  00000-0 -17700-2 0  9992,2 51994  53.2163 152.3913 0002104  67.1226 278.9858 15.08866552 24262,6917.799,95.436,541.12,538.2090000000002,0.0
51994.0,STARLINK-3647,PAYLOAD,2022-08-05 14:00:01,15.08822521,0.0002018,53.2158,149.3982,66.5974,302.7827,0.00066235,0.00010264,0.0,0 STARLINK-3647,1 51994U 22025AQ  22217.58335648  .00010264  00000-0  66235-3 0  9993,2 51994  53.2158 149.3982 0002018  66.5974 302.7827 15.08822521  1305,6917.934,95.439,541.195,538.403,0.0
51994.0,STARLINK-3647,PAYLOAD,2022-08-05 22:00:00,15.08852276,0.0002055,53.2158,147.9023,68.2356,312.6563,-0.0013999,-0.00022507,0.0,0 STARLINK-3647,1 51994U 22025AQ  22217.91667824 -.00022507  00000-0 -13999-2 0  9997,2 51994  53.2158 147.9023 0002055  68.2356 312.6563 15.08852276  1306,6917.843000000003,95.437,541.129,538.286,0.0
51994.0,STARLINK-3647,PAYLOAD,2022-08-06 00:00:02,15.08850505,0.0002096,53.2156,147.5286,66.4155,47.4406,-0.0016908,-0.00027105,0.0,0 STARLINK-3647,1 51994U 22025AQ  22218.00002315 -.00027105  00000-0 -16908-2 0  9998,2 51994  53.2156 147.5286 0002096  66.4155  47.4406 15.08850505 24434,6917.848000000001,95.437,541.163,538.263,0.0
51994.0,STARLINK-3647,PAYLOAD,2022-08-06 12:12:59,15.08838119,0.0002186,53.2177,145.2433,65.5337,294.5883,2.9043000000000013e-05,1.74e-06,0.0,0 STARLINK-3647,1 51994U 22025AQ  22218.50901642  .00000174  00000-0  29043-4 0  9995,2 51994  53.2177 145.2433 0002186  65.5337 294.5883 15.08838119 24507,6917.886,95.438,541.263,538.239,0.0
51994.0,STARLINK-3647,PAYLOAD,2022-08-06 22:00:00,15.08855986,0.0002032999999999,53.2154,143.4132,69.3434,346.3425,-0.0030758,-0.0004893,0.0,0 STARLINK-3647,1 51994U 22025AQ  22218.91667824 -.00048930  00000-0 -30758-2 0  9998,2 51994  53.2154 143.4132 0002033  69.3434 346.3425 15.08855986  1301,6917.831999999999,95.437,541.1030000000002,538.29,0.0
51994.0,STARLINK-3647,PAYLOAD,2022-08-07 14:00:01,15.08816754,0.0001974,53.2152,140.4198,69.4896,9.374,0.0017058,0.00026947,0.0,0 STARLINK-3647,1 51994U 22025AQ  22219.58334491  .00026947  00000-0  17058-2 0  9993,2 51994  53.2152 140.4198 0001974  69.4896   9.3740 15.08816754 24675,6917.951,95.439,541.182,538.451,0.0
51994.0,STARLINK-3647,PAYLOAD,2022-08-07 22:00:00,15.08858124,0.0002078,53.2154,138.9241,69.8193,20.6235,-0.0015375999999999,-0.00024689,0.0,0 STARLINK-3647,1 51994U 22025AQ  22219.91667824 -.00024689  00000-0 -15376-2 0  9993,2 51994  53.2154 138.9241 0002078  69.8193  20.6235 15.08858124  1305,6917.825,95.436,541.128,538.252,0.0
51994.0,STARLINK-3647,PAYLOAD,2022-08-08 14:00:01,15.08863759,0.0001955999999999,53.2156,135.9305,69.9272,43.8176,-0.00017093,-3.009e-05,0.0,0 STARLINK-3647,1 51994U 22025AQ  22220.58335648 -.00003009  00000-0 -17093-3 0  9996,2 51994  53.2156 135.9305 0001956  69.9272  43.8176 15.08863759 24821,6917.808000000001,95.436,541.026,538.32,0.0
51994.0,STARLINK-3647,PAYLOAD,2022-08-08 22:00:00,15.08884375,0.0001968,53.2159,134.4349,68.6127,56.6903,-0.0038328,-0.00060847,0.0,0 STARLINK-3647,1 51994U 22025AQ  22220.91667824 -.00060847  00000-0 -38328-2 0  9993,2 51994  53.2159 134.4349 0001968  68.6127  56.6903 15.08884375  1309,6917.745,95.435,540.971,538.248,0.0
